ADRAS-J                 
1 58992U 24034A   24200.58511175  .00006880  00000+0  62981-3 0  9997
2 58992  98.2126 175.0390 0043215 307.3622  52.3664 14.94592075 22552
